YAM-7                   
1 60504U 24149AN  26068.71799904  .00009009  00000+0  30984-3 0  9997
2 60504  97.3828 149.4631 0001973 296.5121  63.5918 15.30304554 86835
STARLINK-33534          
1 63499U 25071G   26068.45968190  .00015903  00000+0  54807-3 0  9994
2 63499  53.1591 141.0654 0001270  89.8748 270.2398 15.30191318 52710
